{"type": "FeatureCollection", "features": [{"type": "Feature", "properties": {"segment_id": "509:0", "orig_feature_id": 509, "direction": "backward", "length": 16.671, "dynwd": 2.119, "cost": 31.076, "source_node": 179, "target_node": 177, "edge_idx": 937}, "geometry": {"type": "LineString", "coordinates": [[170067.6401705243, 2544309.2570689414], [170083.17094160203, 2544303.1991438135]]}}, {"type": "Feature", "properties": {"segment_id": "503:0", "orig_feature_id": 503, "direction": "backward", "length": 114.682, "dynwd": 2.356, "cost": 127.902, "source_node": 177, "target_node": 182, "edge_idx": 925}, "geometry": {"type": "LineString", "coordinates": [[169953.27313767094, 2544317.5511795236], [170007.2097090965, 2544314.448570677], [170025.7219650148, 2544312.980370055], [170067.6401705243, 2544309.2570689414]]}}, {"type": "Feature", "properties": {"segment_id": "239:0", "orig_feature_id": 239, "direction": "backward", "length": 10.467, "dynwd": 1.764, "cost": 26.647, "source_node": 182, "target_node": 170, "edge_idx": 431}, "geometry": {"type": "LineString", "coordinates": [[169943.15698143427, 2544314.86564238], [169953.27313767094, 2544317.5511795236]]}}, {"type": "Feature", "properties": {"segment_id": "227:0", "orig_feature_id": 227, "direction": "forward", "length": 69.973, "dynwd": 2.573, "cost": 82.108, "source_node": 170, "target_node": 143, "edge_idx": 408}, "geometry": {"type": "LineString", "coordinates": [[169943.15698143427, 2544314.86564238], [169934.43695110665, 2544315.673030123], [169931.714400817, 2544321.775102355], [169877.238928318, 2544324.272097477]]}}, {"type": "Feature", "properties": {"segment_id": "192:0", "orig_feature_id": 192, "direction": "forward", "length": 133.229, "dynwd": 2.496, "cost": 145.74900000000002, "source_node": 143, "target_node": 144, "edge_idx": 342}, "geometry": {"type": "LineString", "coordinates": [[169877.238928318, 2544324.272097477], [169866.70183314217, 2544191.4631787012]]}}, {"type": "Feature", "properties": {"segment_id": "493:0", "orig_feature_id": 493, "direction": "forward", "length": 100.687, "dynwd": 2.496, "cost": 113.207, "source_node": 144, "target_node": 23, "edge_idx": 904}, "geometry": {"type": "LineString", "coordinates": [[169866.70183314217, 2544191.4631787012], [169859.02571613612, 2544094.713858043], [169859.89763580268, 2544091.1885911673]]}}, {"type": "Feature", "properties": {"segment_id": "34:0", "orig_feature_id": 34, "direction": "forward", "length": 19.635, "dynwd": 1.733, "cost": 35.97, "source_node": 23, "target_node": 24, "edge_idx": 66}, "geometry": {"type": "LineString", "coordinates": [[169859.89763580268, 2544091.1885911673], [169860.09909955162, 2544071.554789246]]}}, {"type": "Feature", "properties": {"segment_id": "37:0", "orig_feature_id": 37, "direction": "forward", "length": 96.309, "dynwd": 2.629, "cost": 108.164, "source_node": 24, "target_node": 26, "edge_idx": 72}, "geometry": {"type": "LineString", "coordinates": [[169860.09909955162, 2544071.554789246], [169856.1042140401, 2544068.6844401066], [169849.18985297735, 2543977.5581263164]]}}, {"type": "Feature", "properties": {"segment_id": "253:0", "orig_feature_id": 253, "direction": "forward", "length": 36.562, "dynwd": 2.391, "cost": 49.607, "source_node": 26, "target_node": 190, "edge_idx": 456}, "geometry": {"type": "LineString", "coordinates": [[169849.18985297735, 2543977.5581263164], [169846.41942201278, 2543941.1017327756]]}}, {"type": "Feature", "properties": {"segment_id": "254:0", "orig_feature_id": 254, "direction": "forward", "length": 177.491, "dynwd": 2.391, "cost": 190.536, "source_node": 190, "target_node": 191, "edge_idx": 458}, "geometry": {"type": "LineString", "coordinates": [[169846.41942201278, 2543941.1017327756], [169833.12533473602, 2543764.113220114]]}}, {"type": "Feature", "properties": {"segment_id": "255:0", "orig_feature_id": 255, "direction": "forward", "length": 104.375, "dynwd": 2.291, "cost": 117.92, "source_node": 191, "target_node": 192, "edge_idx": 460}, "geometry": {"type": "LineString", "coordinates": [[169833.12533473602, 2543764.113220114], [169825.59254859295, 2543660.0120802997]]}}, {"type": "Feature", "properties": {"segment_id": "284:0", "orig_feature_id": 284, "direction": "forward", "length": 20.853, "dynwd": 1.527, "cost": 38.218, "source_node": 192, "target_node": 223, "edge_idx": 518}, "geometry": {"type": "LineString", "coordinates": [[169825.59254859295, 2543660.0120802997], [169804.84479682776, 2543662.1000907687]]}}, {"type": "Feature", "properties": {"segment_id": "299:0", "orig_feature_id": 299, "direction": "forward", "length": 91.387, "dynwd": 2.087, "cost": 105.952, "source_node": 223, "target_node": 237, "edge_idx": 548}, "geometry": {"type": "LineString", "coordinates": [[169804.84479682776, 2543662.1000907687], [169714.08606522108, 2543672.7834790833]]}}, {"type": "Feature", "properties": {"segment_id": "300:0", "orig_feature_id": 300, "direction": "forward", "length": 19.552, "dynwd": 2.171, "cost": 33.697, "source_node": 237, "target_node": 238, "edge_idx": 550}, "geometry": {"type": "LineString", "coordinates": [[169714.08606522108, 2543672.7834790833], [169694.62826603497, 2543674.6913001454]]}}, {"type": "Feature", "properties": {"segment_id": "301:0", "orig_feature_id": 301, "direction": "forward", "length": 10.866, "dynwd": 2.271, "cost": 24.511, "source_node": 238, "target_node": 239, "edge_idx": 552}, "geometry": {"type": "LineString", "coordinates": [[169694.62826603497, 2543674.6913001454], [169683.81858523207, 2543675.789755749]]}}, {"type": "Feature", "properties": {"segment_id": "302:0", "orig_feature_id": 302, "direction": "forward", "length": 5.895, "dynwd": 1.694, "cost": 22.425, "source_node": 239, "target_node": 240, "edge_idx": 554}, "geometry": {"type": "LineString", "coordinates": [[169683.81858523207, 2543675.789755749], [169677.9607589608, 2543676.4454783536]]}}, {"type": "Feature", "properties": {"segment_id": "303:0", "orig_feature_id": 303, "direction": "forward", "length": 15.033, "dynwd": 2.159, "cost": 29.238, "source_node": 240, "target_node": 241, "edge_idx": 556}, "geometry": {"type": "LineString", "coordinates": [[169677.9607589608, 2543676.4454783536], [169663.03801894945, 2543678.259734663]]}}, {"type": "Feature", "properties": {"segment_id": "304:0", "orig_feature_id": 304, "direction": "forward", "length": 4.215, "dynwd": 1.422, "cost": 22.105, "source_node": 241, "target_node": 242, "edge_idx": 558}, "geometry": {"type": "LineString", "coordinates": [[169663.03801894945, 2543678.2597346627], [169658.8540702433, 2543678.7677588942]]}}, {"type": "Feature", "properties": {"segment_id": "305:0", "orig_feature_id": 305, "direction": "forward", "length": 17.76, "dynwd": 2.131, "cost": 32.105000000000004, "source_node": 242, "target_node": 243, "edge_idx": 560}, "geometry": {"type": "LineString", "coordinates": [[169658.8540702433, 2543678.7677588942], [169641.21119351732, 2543680.8047149093]]}}, {"type": "Feature", "properties": {"segment_id": "306:0", "orig_feature_id": 306, "direction": "forward", "length": 71.172, "dynwd": 1.527, "cost": 88.53699999999999, "source_node": 243, "target_node": 244, "edge_idx": 562}, "geometry": {"type": "LineString", "coordinates": [[169641.21119351732, 2543680.804714909], [169570.64566479344, 2543690.062816057]]}}], "crs": {"type": "name", "properties": {"name": "urn:ogc:def:crs:EPSG::3826"}}}