{"type": "FeatureCollection", "features": [{"type": "Feature", "properties": {"segment_id": "37:0", "orig_feature_id": 37, "direction": "forward", "length": 96.309, "dynwd": 2.504, "cost": 108.789, "source_node": 24, "target_node": 26, "edge_idx": 72}, "geometry": {"type": "LineString", "coordinates": [[169860.09909955162, 2544071.554789246], [169856.1042140401, 2544068.6844401066], [169849.18985297735, 2543977.5581263164]]}}, {"type": "Feature", "properties": {"segment_id": "253:0", "orig_feature_id": 253, "direction": "forward", "length": 36.562, "dynwd": 2.366, "cost": 49.732, "source_node": 26, "target_node": 190, "edge_idx": 456}, "geometry": {"type": "LineString", "coordinates": [[169849.18985297735, 2543977.5581263164], [169846.41942201278, 2543941.1017327756]]}}, {"type": "Feature", "properties": {"segment_id": "254:0", "orig_feature_id": 254, "direction": "forward", "length": 177.491, "dynwd": 2.416, "cost": 190.411, "source_node": 190, "target_node": 191, "edge_idx": 458}, "geometry": {"type": "LineString", "coordinates": [[169846.41942201278, 2543941.1017327756], [169833.12533473602, 2543764.113220114]]}}, {"type": "Feature", "properties": {"segment_id": "255:0", "orig_feature_id": 255, "direction": "forward", "length": 104.375, "dynwd": 2.466, "cost": 117.045, "source_node": 191, "target_node": 192, "edge_idx": 460}, "geometry": {"type": "LineString", "coordinates": [[169833.12533473602, 2543764.113220114], [169825.59254859295, 2543660.0120802997]]}}, {"type": "Feature", "properties": {"segment_id": "284:0", "orig_feature_id": 284, "direction": "forward", "length": 20.853, "dynwd": 1.652, "cost": 37.593, "source_node": 192, "target_node": 223, "edge_idx": 518}, "geometry": {"type": "LineString", "coordinates": [[169825.59254859295, 2543660.0120802997], [169804.84479682776, 2543662.1000907687]]}}, {"type": "Feature", "properties": {"segment_id": "299:0", "orig_feature_id": 299, "direction": "forward", "length": 91.387, "dynwd": 2.212, "cost": 105.327, "source_node": 223, "target_node": 237, "edge_idx": 548}, "geometry": {"type": "LineString", "coordinates": [[169804.84479682776, 2543662.1000907687], [169714.08606522108, 2543672.7834790833]]}}, {"type": "Feature", "properties": {"segment_id": "300:0", "orig_feature_id": 300, "direction": "forward", "length": 19.552, "dynwd": 2.296, "cost": 33.072, "source_node": 237, "target_node": 238, "edge_idx": 550}, "geometry": {"type": "LineString", "coordinates": [[169714.08606522108, 2543672.7834790833], [169694.62826603497, 2543674.6913001454]]}}, {"type": "Feature", "properties": {"segment_id": "301:0", "orig_feature_id": 301, "direction": "forward", "length": 10.866, "dynwd": 2.296, "cost": 24.386000000000003, "source_node": 238, "target_node": 239, "edge_idx": 552}, "geometry": {"type": "LineString", "coordinates": [[169694.62826603497, 2543674.6913001454], [169683.81858523207, 2543675.789755749]]}}, {"type": "Feature", "properties": {"segment_id": "302:0", "orig_feature_id": 302, "direction": "forward", "length": 5.895, "dynwd": 1.719, "cost": 22.299999999999997, "source_node": 239, "target_node": 240, "edge_idx": 554}, "geometry": {"type": "LineString", "coordinates": [[169683.81858523207, 2543675.789755749], [169677.9607589608, 2543676.4454783536]]}}, {"type": "Feature", "properties": {"segment_id": "303:0", "orig_feature_id": 303, "direction": "forward", "length": 15.033, "dynwd": 2.184, "cost": 29.113, "source_node": 240, "target_node": 241, "edge_idx": 556}, "geometry": {"type": "LineString", "coordinates": [[169677.9607589608, 2543676.4454783536], [169663.03801894945, 2543678.259734663]]}}, {"type": "Feature", "properties": {"segment_id": "372:0", "orig_feature_id": 372, "direction": "forward", "length": 19.891, "dynwd": 1.285, "cost": 38.465999999999994, "source_node": 241, "target_node": 292, "edge_idx": 670}, "geometry": {"type": "LineString", "coordinates": [[169663.03801894945, 2543678.2597346622], [169668.233981031, 2543697.4599564564]]}}, {"type": "Feature", "properties": {"segment_id": "376:0", "orig_feature_id": 376, "direction": "forward", "length": 42.498, "dynwd": 2.009, "cost": 57.452999999999996, "source_node": 292, "target_node": 296, "edge_idx": 678}, "geometry": {"type": "LineString", "coordinates": [[169668.23398103096, 2543697.459956456], [169663.69254391058, 2543699.1000619493], [169635.9564339973, 2543708.9433262064], [169638.2737808763, 2543716.8485641507]]}}, {"type": "Feature", "properties": {"segment_id": "377:0", "orig_feature_id": 377, "direction": "forward", "length": 32.424, "dynwd": 1.997, "cost": 47.439, "source_node": 296, "target_node": 297, "edge_idx": 680}, "geometry": {"type": "LineString", "coordinates": [[169638.2737808763, 2543716.8485641507], [169647.8646954599, 2543747.8214242025]]}}, {"type": "Feature", "properties": {"segment_id": "382:0", "orig_feature_id": 382, "direction": "forward", "length": 29.99, "dynwd": 1.997, "cost": 45.004999999999995, "source_node": 297, "target_node": 301, "edge_idx": 690}, "geometry": {"type": "LineString", "coordinates": [[169647.8646954599, 2543747.821424202], [169642.00481587864, 2543747.0147289224], [169618.63476443553, 2543752.7950730636]]}}], "crs": {"type": "name", "properties": {"name": "urn:ogc:def:crs:EPSG::3826"}}}