{"type": "FeatureCollection", "features": [{"type": "Feature", "properties": {"segment_id": "34:0", "orig_feature_id": 34, "direction": "forward", "length": 19.635, "dynwd": 1.808, "cost": 35.595, "source_node": 23, "target_node": 24, "edge_idx": 66}, "geometry": {"type": "LineString", "coordinates": [[169859.89763580268, 2544091.1885911673], [169860.09909955162, 2544071.554789246]]}}, {"type": "Feature", "properties": {"segment_id": "37:0", "orig_feature_id": 37, "direction": "forward", "length": 96.309, "dynwd": 2.654, "cost": 108.039, "source_node": 24, "target_node": 26, "edge_idx": 72}, "geometry": {"type": "LineString", "coordinates": [[169860.09909955162, 2544071.554789246], [169856.1042140401, 2544068.6844401066], [169849.18985297735, 2543977.5581263164]]}}, {"type": "Feature", "properties": {"segment_id": "82:0", "orig_feature_id": 82, "direction": "forward", "length": 186.942, "dynwd": 2.704, "cost": 198.422, "source_node": 64, "target_node": 65, "edge_idx": 162}, "geometry": {"type": "LineString", "coordinates": [[170088.02258369728, 2544569.5994690084], [169968.68943713797, 2544579.0612028455], [169960.72792851727, 2544578.5709420918], [169933.87713527808, 2544580.5401854967], [169901.7549955814, 2544584.2116195317]]}}, {"type": "Feature", "properties": {"segment_id": "87:0", "orig_feature_id": 87, "direction": "backward", "length": 82.145, "dynwd": 2.794, "cost": 93.175, "source_node": 69, "target_node": 68, "edge_idx": 173}, "geometry": {"type": "LineString", "coordinates": [[170264.07831339282, 2544591.8729517604], [170270.5244477662, 2544673.763106554]]}}, {"type": "Feature", "properties": {"segment_id": "88:0", "orig_feature_id": 88, "direction": "forward", "length": 153.106, "dynwd": 2.438, "cost": 165.916, "source_node": 68, "target_node": 70, "edge_idx": 174}, "geometry": {"type": "LineString", "coordinates": [[170264.07831339282, 2544591.8729517604], [170111.4708196306, 2544604.1733543295]]}}, {"type": "Feature", "properties": {"segment_id": "90:0", "orig_feature_id": 90, "direction": "backward", "length": 35.895, "dynwd": 1.758, "cost": 52.105000000000004, "source_node": 71, "target_node": 64, "edge_idx": 179}, "geometry": {"type": "LineString", "coordinates": [[170088.02258369728, 2544569.5994690084], [170091.2737385903, 2544605.346019676]]}}, {"type": "Feature", "properties": {"segment_id": "91:0", "orig_feature_id": 91, "direction": "backward", "length": 20.232, "dynwd": 1.777, "cost": 36.346999999999994, "source_node": 70, "target_node": 71, "edge_idx": 181}, "geometry": {"type": "LineString", "coordinates": [[170091.2737385903, 2544605.346019676], [170111.4708196306, 2544604.1733543286]]}}, {"type": "Feature", "properties": {"segment_id": "191:0", "orig_feature_id": 191, "direction": "forward", "length": 154.44, "dynwd": 2.67, "cost": 166.09, "source_node": 65, "target_node": 141, "edge_idx": 340}, "geometry": {"type": "LineString", "coordinates": [[169901.7549955814, 2544584.211619531], [169898.2675744477, 2544579.607534053], [169886.15176511038, 2544431.441543738]]}}, {"type": "Feature", "properties": {"segment_id": "192:0", "orig_feature_id": 192, "direction": "forward", "length": 133.229, "dynwd": 2.621, "cost": 145.12400000000002, "source_node": 143, "target_node": 144, "edge_idx": 342}, "geometry": {"type": "LineString", "coordinates": [[169877.238928318, 2544324.272097477], [169866.70183314217, 2544191.4631787012]]}}, {"type": "Feature", "properties": {"segment_id": "228:0", "orig_feature_id": 228, "direction": "forward", "length": 10.355, "dynwd": 1.919, "cost": 25.759999999999998, "source_node": 171, "target_node": 143, "edge_idx": 410}, "geometry": {"type": "LineString", "coordinates": [[169878.0267391561, 2544334.597138147], [169877.238928318, 2544324.272097477]]}}, {"type": "Feature", "properties": {"segment_id": "229:0", "orig_feature_id": 229, "direction": "forward", "length": 8.029570132309429, "dynwd": 2.465, "cost": 20.704570132309428, "source_node": 172, "target_node": 171, "edge_idx": 412}, "geometry": {"type": "LineString", "coordinates": [[169878.63762764953, 2544342.6034364025], [169878.0267391561, 2544334.597138147]]}}, {"type": "Feature", "properties": {"segment_id": "229:1", "orig_feature_id": 229, "direction": "forward", "length": 89.15532276014177, "dynwd": 2.465, "cost": 101.83032276014177, "source_node": 141, "target_node": 172, "edge_idx": 414}, "geometry": {"type": "LineString", "coordinates": [[169886.15176511038, 2544431.4415437374], [169878.63762764953, 2544342.6034364034]]}}, {"type": "Feature", "properties": {"segment_id": "253:0", "orig_feature_id": 253, "direction": "forward", "length": 36.562, "dynwd": 2.416, "cost": 49.482, "source_node": 26, "target_node": 190, "edge_idx": 456}, "geometry": {"type": "LineString", "coordinates": [[169849.18985297735, 2543977.5581263164], [169846.41942201278, 2543941.1017327756]]}}, {"type": "Feature", "properties": {"segment_id": "254:0", "orig_feature_id": 254, "direction": "forward", "length": 177.491, "dynwd": 2.466, "cost": 190.161, "source_node": 190, "target_node": 191, "edge_idx": 458}, "geometry": {"type": "LineString", "coordinates": [[169846.41942201278, 2543941.1017327756], [169833.12533473602, 2543764.113220114]]}}, {"type": "Feature", "properties": {"segment_id": "255:0", "orig_feature_id": 255, "direction": "forward", "length": 104.375, "dynwd": 2.516, "cost": 116.795, "source_node": 191, "target_node": 192, "edge_idx": 460}, "geometry": {"type": "LineString", "coordinates": [[169833.12533473602, 2543764.113220114], [169825.59254859295, 2543660.0120802997]]}}, {"type": "Feature", "properties": {"segment_id": "284:0", "orig_feature_id": 284, "direction": "forward", "length": 20.853, "dynwd": 1.602, "cost": 37.843, "source_node": 192, "target_node": 223, "edge_idx": 518}, "geometry": {"type": "LineString", "coordinates": [[169825.59254859295, 2543660.0120802997], [169804.84479682776, 2543662.1000907687]]}}, {"type": "Feature", "properties": {"segment_id": "299:0", "orig_feature_id": 299, "direction": "forward", "length": 91.387, "dynwd": 2.162, "cost": 105.577, "source_node": 223, "target_node": 237, "edge_idx": 548}, "geometry": {"type": "LineString", "coordinates": [[169804.84479682776, 2543662.1000907687], [169714.08606522108, 2543672.7834790833]]}}, {"type": "Feature", "properties": {"segment_id": "300:0", "orig_feature_id": 300, "direction": "forward", "length": 19.552, "dynwd": 2.246, "cost": 33.322, "source_node": 237, "target_node": 238, "edge_idx": 550}, "geometry": {"type": "LineString", "coordinates": [[169714.08606522108, 2543672.7834790833], [169694.62826603497, 2543674.6913001454]]}}, {"type": "Feature", "properties": {"segment_id": "301:0", "orig_feature_id": 301, "direction": "forward", "length": 10.866, "dynwd": 2.246, "cost": 24.636, "source_node": 238, "target_node": 239, "edge_idx": 552}, "geometry": {"type": "LineString", "coordinates": [[169694.62826603497, 2543674.6913001454], [169683.81858523207, 2543675.789755749]]}}, {"type": "Feature", "properties": {"segment_id": "302:0", "orig_feature_id": 302, "direction": "forward", "length": 5.895, "dynwd": 1.769, "cost": 22.05, "source_node": 239, "target_node": 240, "edge_idx": 554}, "geometry": {"type": "LineString", "coordinates": [[169683.81858523207, 2543675.789755749], [169677.9607589608, 2543676.4454783536]]}}, {"type": "Feature", "properties": {"segment_id": "303:0", "orig_feature_id": 303, "direction": "forward", "length": 15.033, "dynwd": 2.234, "cost": 28.863, "source_node": 240, "target_node": 241, "edge_idx": 556}, "geometry": {"type": "LineString", "coordinates": [[169677.9607589608, 2543676.4454783536], [169663.03801894945, 2543678.259734663]]}}, {"type": "Feature", "properties": {"segment_id": "372:0", "orig_feature_id": 372, "direction": "forward", "length": 19.891, "dynwd": 1.335, "cost": 38.215999999999994, "source_node": 241, "target_node": 292, "edge_idx": 670}, "geometry": {"type": "LineString", "coordinates": [[169663.03801894945, 2543678.2597346622], [169668.233981031, 2543697.4599564564]]}}, {"type": "Feature", "properties": {"segment_id": "376:0", "orig_feature_id": 376, "direction": "forward", "length": 42.498, "dynwd": 2.059, "cost": 57.202999999999996, "source_node": 292, "target_node": 296, "edge_idx": 678}, "geometry": {"type": "LineString", "coordinates": [[169668.23398103096, 2543697.459956456], [169663.69254391058, 2543699.1000619493], [169635.9564339973, 2543708.9433262064], [169638.2737808763, 2543716.8485641507]]}}, {"type": "Feature", "properties": {"segment_id": "377:0", "orig_feature_id": 377, "direction": "forward", "length": 32.424, "dynwd": 2.047, "cost": 47.189, "source_node": 296, "target_node": 297, "edge_idx": 680}, "geometry": {"type": "LineString", "coordinates": [[169638.2737808763, 2543716.8485641507], [169647.8646954599, 2543747.8214242025]]}}, {"type": "Feature", "properties": {"segment_id": "414:0", "orig_feature_id": 414, "direction": "backward", "length": 98.757, "dynwd": 2.794, "cost": 109.787, "source_node": 80, "target_node": 69, "edge_idx": 753}, "geometry": {"type": "LineString", "coordinates": [[170270.5244477662, 2544673.763106554], [170278.27415765307, 2544772.2135739936]]}}, {"type": "Feature", "properties": {"segment_id": "493:0", "orig_feature_id": 493, "direction": "forward", "length": 100.687, "dynwd": 2.571, "cost": 112.832, "source_node": 144, "target_node": 23, "edge_idx": 904}, "geometry": {"type": "LineString", "coordinates": [[169866.70183314217, 2544191.4631787012], [169859.02571613612, 2544094.713858043], [169859.89763580268, 2544091.1885911673]]}}], "crs": {"type": "name", "properties": {"name": "urn:ogc:def:crs:EPSG::3826"}}}