{"type": "FeatureCollection", "features": [{"type": "Feature", "properties": {"segment_id": "107:0", "orig_feature_id": 107, "direction": "forward", "length": 92.733, "dynwd": 2.446, "cost": 105.503, "source_node": 80, "target_node": 84, "edge_idx": 204}, "geometry": {"type": "LineString", "coordinates": [[170278.27415765307, 2544772.2135739936], [170273.96847541313, 2544775.6225203294], [170187.9657743007, 2544790.259790019]]}}, {"type": "Feature", "properties": {"segment_id": "419:0", "orig_feature_id": 419, "direction": "backward", "length": 66.398, "dynwd": 2.489, "cost": 78.953, "source_node": 84, "target_node": 330, "edge_idx": 763}, "geometry": {"type": "LineString", "coordinates": [[170187.05021047202, 2544728.6124106497], [170188.29984636724, 2544742.6282075406], [170183.767027843, 2544742.652278397], [170187.9657743007, 2544790.259790019]]}}, {"type": "Feature", "properties": {"segment_id": "418:0", "orig_feature_id": 418, "direction": "backward", "length": 50.387, "dynwd": 2.18, "cost": 64.487, "source_node": 330, "target_node": 329, "edge_idx": 761}, "geometry": {"type": "LineString", "coordinates": [[170182.883712839, 2544678.398971657], [170187.05021047202, 2544728.6124106497]]}}, {"type": "Feature", "properties": {"segment_id": "424:0", "orig_feature_id": 424, "direction": "forward", "length": 61.256, "dynwd": 2.257, "cost": 74.971, "source_node": 329, "target_node": 333, "edge_idx": 770}, "geometry": {"type": "LineString", "coordinates": [[170182.883712839, 2544678.398971657], [170180.8832779503, 2544645.752648186], [170180.74081461565, 2544641.125103917], [170176.07157343655, 2544641.3320111474], [170174.87066842636, 2544622.1257029683]]}}, {"type": "Feature", "properties": {"segment_id": "431:0", "orig_feature_id": 431, "direction": "backward", "length": 61.4, "dynwd": 2.012, "cost": 76.34, "source_node": 333, "target_node": 336, "edge_idx": 785}, "geometry": {"type": "LineString", "coordinates": [[170113.88400034286, 2544629.228286703], [170174.8706684264, 2544622.125702968]]}}, {"type": "Feature", "properties": {"segment_id": "432:0", "orig_feature_id": 432, "direction": "forward", "length": 32.888, "dynwd": 1.969, "cost": 48.04299999999999, "source_node": 336, "target_node": 71, "edge_idx": 786}, "geometry": {"type": "LineString", "coordinates": [[170113.88400034286, 2544629.228286703], [170091.2737385903, 2544605.346019676]]}}, {"type": "Feature", "properties": {"segment_id": "92:0", "orig_feature_id": 92, "direction": "forward", "length": 137.223, "dynwd": 2.318, "cost": 150.633, "source_node": 71, "target_node": 72, "edge_idx": 182}, "geometry": {"type": "LineString", "coordinates": [[170091.2737385903, 2544605.346019676], [169954.50116270222, 2544616.4224426723]]}}, {"type": "Feature", "properties": {"segment_id": "93:0", "orig_feature_id": 93, "direction": "forward", "length": 13.334, "dynwd": 1.54, "cost": 30.634, "source_node": 72, "target_node": 73, "edge_idx": 184}, "geometry": {"type": "LineString", "coordinates": [[169954.50116270222, 2544616.4224426723], [169941.2106855218, 2544617.5009200843]]}}, {"type": "Feature", "properties": {"segment_id": "117:0", "orig_feature_id": 117, "direction": "forward", "length": 37.012, "dynwd": 2.255, "cost": 50.737, "source_node": 73, "target_node": 74, "edge_idx": 220}, "geometry": {"type": "LineString", "coordinates": [[169941.2106855218, 2544617.5009200843], [169904.3207017284, 2544620.494417887]]}}, {"type": "Feature", "properties": {"segment_id": "170:0", "orig_feature_id": 170, "direction": "backward", "length": 22.615, "dynwd": 1.633, "cost": 39.45, "source_node": 74, "target_node": 124, "edge_idx": 299}, "geometry": {"type": "LineString", "coordinates": [[169881.7527783602, 2544621.946324892], [169904.3207017284, 2544620.494417887]]}}, {"type": "Feature", "properties": {"segment_id": "168:0", "orig_feature_id": 168, "direction": "forward", "length": 35.497, "dynwd": 1.633, "cost": 52.332, "source_node": 124, "target_node": 117, "edge_idx": 294}, "geometry": {"type": "LineString", "coordinates": [[169881.7527783602, 2544621.946324892], [169878.73273086184, 2544586.57907328]]}}, {"type": "Feature", "properties": {"segment_id": "216:0", "orig_feature_id": 216, "direction": "backward", "length": 132.807, "dynwd": 2.474, "cost": 145.43699999999998, "source_node": 117, "target_node": 142, "edge_idx": 387}, "geometry": {"type": "LineString", "coordinates": [[169869.29023522156, 2544454.1718545943], [169879.14060995268, 2544580.546502819], [169878.7327308618, 2544586.5790732796]]}}, {"type": "Feature", "properties": {"segment_id": "217:0", "orig_feature_id": 217, "direction": "backward", "length": 41.04, "dynwd": 1.382, "cost": 59.13, "source_node": 142, "target_node": 160, "edge_idx": 389}, "geometry": {"type": "LineString", "coordinates": [[169828.39881130564, 2544450.696872127], [169869.29023522208, 2544454.171854594]]}}, {"type": "Feature", "properties": {"segment_id": "447:0", "orig_feature_id": 447, "direction": "forward", "length": 115.242, "dynwd": 2.369, "cost": 128.397, "source_node": 160, "target_node": 157, "edge_idx": 814}, "geometry": {"type": "LineString", "coordinates": [[169828.39881130564, 2544450.696872127], [169824.34349256352, 2544343.4118474605], [169827.6353953817, 2544336.2551313587]]}}, {"type": "Feature", "properties": {"segment_id": "446:0", "orig_feature_id": 446, "direction": "forward", "length": 73.86, "dynwd": 2.201, "cost": 87.855, "source_node": 157, "target_node": 159, "edge_idx": 812}, "geometry": {"type": "LineString", "coordinates": [[169827.6353953817, 2544336.255131359], [169755.78941629714, 2544353.379275697]]}}, {"type": "Feature", "properties": {"segment_id": "211:0", "orig_feature_id": 211, "direction": "backward", "length": 20.541, "dynwd": 1.453, "cost": 38.275999999999996, "source_node": 159, "target_node": 155, "edge_idx": 381}, "geometry": {"type": "LineString", "coordinates": [[169751.3966727628, 2544333.313762168], [169755.78941629714, 2544353.379275697]]}}, {"type": "Feature", "properties": {"segment_id": "207:0", "orig_feature_id": 207, "direction": "backward", "length": 50.008, "dynwd": 2.391, "cost": 63.053000000000004, "source_node": 155, "target_node": 149, "edge_idx": 373}, "geometry": {"type": "LineString", "coordinates": [[169741.95099870957, 2544284.2069925945], [169751.3966727628, 2544333.313762168]]}}, {"type": "Feature", "properties": {"segment_id": "197:0", "orig_feature_id": 197, "direction": "backward", "length": 79.172, "dynwd": 2.405, "cost": 92.14699999999999, "source_node": 149, "target_node": 148, "edge_idx": 353}, "geometry": {"type": "LineString", "coordinates": [[169725.92499748175, 2544206.675608763], [169741.95099870957, 2544284.2069925945]]}}, {"type": "Feature", "properties": {"segment_id": "199:0", "orig_feature_id": 199, "direction": "backward", "length": 26.549, "dynwd": 1.677, "cost": 43.164, "source_node": 148, "target_node": 146, "edge_idx": 357}, "geometry": {"type": "LineString", "coordinates": [[169703.73007247434, 2544192.1077493285], [169725.92499748175, 2544206.675608763]]}}, {"type": "Feature", "properties": {"segment_id": "194:0", "orig_feature_id": 194, "direction": "backward", "length": 73.951, "dynwd": 2.629, "cost": 85.806, "source_node": 146, "target_node": 11, "edge_idx": 347}, "geometry": {"type": "LineString", "coordinates": [[169687.85754148295, 2544119.881591331], [169703.73007247434, 2544192.1077493285]]}}, {"type": "Feature", "properties": {"segment_id": "14:0", "orig_feature_id": 14, "direction": "backward", "length": 159.801, "dynwd": 2.495, "cost": 172.326, "source_node": 11, "target_node": 5, "edge_idx": 27}, "geometry": {"type": "LineString", "coordinates": [[169530.27041562807, 2544146.368488046], [169687.85754148295, 2544119.881591331]]}}, {"type": "Feature", "properties": {"segment_id": "10:0", "orig_feature_id": 10, "direction": "forward", "length": 19.483, "dynwd": 1.627, "cost": 36.348, "source_node": 5, "target_node": 7, "edge_idx": 18}, "geometry": {"type": "LineString", "coordinates": [[169530.27041562807, 2544146.368488046], [169526.72401451954, 2544127.2113705864]]}}, {"type": "Feature", "properties": {"segment_id": "592:1", "orig_feature_id": 592, "direction": "forward", "length": 51.565955923045735, "dynwd": 2.3, "cost": 65.06595592304573, "source_node": 7, "target_node": 413, "edge_idx": 1110}, "geometry": {"type": "LineString", "coordinates": [[169526.72401451954, 2544127.2113705864], [169522.41824290244, 2544124.711829463], [169521.09398173305, 2544111.953093045], [169517.42553767352, 2544078.393008696]]}}, {"type": "Feature", "properties": {"segment_id": "592:0", "orig_feature_id": 592, "direction": "forward", "length": 45.13668966448903, "dynwd": 2.3, "cost": 58.63668966448903, "source_node": 413, "target_node": 228, "edge_idx": 1108}, "geometry": {"type": "LineString", "coordinates": [[169517.42553767352, 2544078.393008695], [169513.01625551068, 2544036.7887551025], [169513.83645971242, 2544033.592890352]]}}, {"type": "Feature", "properties": {"segment_id": "292:0", "orig_feature_id": 292, "direction": "forward", "length": 13.923, "dynwd": 1.477, "cost": 31.537999999999997, "source_node": 228, "target_node": 229, "edge_idx": 534}, "geometry": {"type": "LineString", "coordinates": [[169513.83645971242, 2544033.592890352], [169511.4952608341, 2544019.8682027464]]}}, {"type": "Feature", "properties": {"segment_id": "329:0", "orig_feature_id": 329, "direction": "forward", "length": 85.086, "dynwd": 2.118, "cost": 99.496, "source_node": 229, "target_node": 268, "edge_idx": 608}, "geometry": {"type": "LineString", "coordinates": [[169511.4952608341, 2544019.8682027464], [169507.01747643604, 2543978.5069866735], [169502.73878023526, 2543935.236633785]]}}, {"type": "Feature", "properties": {"segment_id": "330:0", "orig_feature_id": 330, "direction": "forward", "length": 6.89, "dynwd": 2.097, "cost": 21.405, "source_node": 268, "target_node": 269, "edge_idx": 610}, "geometry": {"type": "LineString", "coordinates": [[169502.73878023526, 2543935.236633785], [169501.58598520578, 2543928.443532522]]}}, {"type": "Feature", "properties": {"segment_id": "332:0", "orig_feature_id": 332, "direction": "forward", "length": 53.504, "dynwd": 2.118, "cost": 67.914, "source_node": 269, "target_node": 271, "edge_idx": 614}, "geometry": {"type": "LineString", "coordinates": [[169501.58598520578, 2543928.443532522], [169498.36942787853, 2543875.037786648]]}}, {"type": "Feature", "properties": {"segment_id": "333:0", "orig_feature_id": 333, "direction": "forward", "length": 12.924, "dynwd": 1.421, "cost": 30.819, "source_node": 271, "target_node": 272, "edge_idx": 616}, "geometry": {"type": "LineString", "coordinates": [[169498.36942787853, 2543875.037786648], [169497.60258795615, 2543862.137095429]]}}, {"type": "Feature", "properties": {"segment_id": "336:0", "orig_feature_id": 336, "direction": "forward", "length": 24.671, "dynwd": 1.66, "cost": 41.370999999999995, "source_node": 272, "target_node": 273, "edge_idx": 622}, "geometry": {"type": "LineString", "coordinates": [[169497.60258795612, 2543862.137095428], [169494.51031640128, 2543837.661047732]]}}, {"type": "Feature", "properties": {"segment_id": "602:0", "orig_feature_id": 602, "direction": "forward", "length": 39.328, "dynwd": 2.012, "cost": 54.268, "source_node": 273, "target_node": 306, "edge_idx": 1130}, "geometry": {"type": "LineString", "coordinates": [[169494.51031640125, 2543837.661047731], [169533.776235395, 2543835.4650711273]]}}, {"type": "Feature", "properties": {"segment_id": "389:0", "orig_feature_id": 389, "direction": "forward", "length": 42.672, "dynwd": 1.984, "cost": 57.751999999999995, "source_node": 306, "target_node": 307, "edge_idx": 704}, "geometry": {"type": "LineString", "coordinates": [[169533.776235395, 2543835.4650711273], [169576.30451942427, 2543831.9764997466]]}}, {"type": "Feature", "properties": {"segment_id": "391:0", "orig_feature_id": 391, "direction": "forward", "length": 24.546, "dynwd": 2.006, "cost": 39.516, "source_node": 307, "target_node": 302, "edge_idx": 708}, "geometry": {"type": "LineString", "coordinates": [[169576.30451942427, 2543831.976499746], [169577.65051940858, 2543807.467844929]]}}, {"type": "Feature", "properties": {"segment_id": "383:0", "orig_feature_id": 383, "direction": "backward", "length": 127.598, "dynwd": 1.473, "cost": 145.233, "source_node": 302, "target_node": 297, "edge_idx": 693}, "geometry": {"type": "LineString", "coordinates": [[169647.8646954599, 2543747.821424202], [169659.94285848032, 2543789.092180352], [169609.48177411826, 2543803.7427951572], [169577.65051940858, 2543807.467844929]]}}], "crs": {"type": "name", "properties": {"name": "urn:ogc:def:crs:EPSG::3826"}}}