{"type": "FeatureCollection", "features": [{"type": "Feature", "properties": {"segment_id": "10:0", "orig_feature_id": 10, "direction": "forward", "length": 19.483, "dynwd": 1.627, "cost": 36.348, "source_node": 5, "target_node": 7, "edge_idx": 18}, "geometry": {"type": "LineString", "coordinates": [[169530.27041562807, 2544146.368488046], [169526.72401451954, 2544127.2113705864]]}}, {"type": "Feature", "properties": {"segment_id": "14:0", "orig_feature_id": 14, "direction": "backward", "length": 159.801, "dynwd": 2.495, "cost": 172.326, "source_node": 11, "target_node": 5, "edge_idx": 27}, "geometry": {"type": "LineString", "coordinates": [[169530.27041562807, 2544146.368488046], [169687.85754148295, 2544119.881591331]]}}, {"type": "Feature", "properties": {"segment_id": "194:0", "orig_feature_id": 194, "direction": "backward", "length": 73.951, "dynwd": 2.729, "cost": 85.306, "source_node": 146, "target_node": 11, "edge_idx": 347}, "geometry": {"type": "LineString", "coordinates": [[169687.85754148295, 2544119.881591331], [169703.73007247434, 2544192.1077493285]]}}, {"type": "Feature", "properties": {"segment_id": "197:0", "orig_feature_id": 197, "direction": "backward", "length": 79.172, "dynwd": 2.505, "cost": 91.64699999999999, "source_node": 149, "target_node": 148, "edge_idx": 353}, "geometry": {"type": "LineString", "coordinates": [[169725.92499748175, 2544206.675608763], [169741.95099870957, 2544284.2069925945]]}}, {"type": "Feature", "properties": {"segment_id": "199:0", "orig_feature_id": 199, "direction": "backward", "length": 26.549, "dynwd": 1.777, "cost": 42.664, "source_node": 148, "target_node": 146, "edge_idx": 357}, "geometry": {"type": "LineString", "coordinates": [[169703.73007247434, 2544192.1077493285], [169725.92499748175, 2544206.675608763]]}}, {"type": "Feature", "properties": {"segment_id": "207:0", "orig_feature_id": 207, "direction": "backward", "length": 50.008, "dynwd": 2.491, "cost": 62.553000000000004, "source_node": 155, "target_node": 149, "edge_idx": 373}, "geometry": {"type": "LineString", "coordinates": [[169741.95099870957, 2544284.2069925945], [169751.3966727628, 2544333.313762168]]}}, {"type": "Feature", "properties": {"segment_id": "208:0", "orig_feature_id": 208, "direction": "backward", "length": 88.0, "dynwd": 2.406, "cost": 100.97, "source_node": 156, "target_node": 155, "edge_idx": 375}, "geometry": {"type": "LineString", "coordinates": [[169751.3966727628, 2544333.313762168], [169837.3139839085, 2544314.2882628813]]}}, {"type": "Feature", "properties": {"segment_id": "228:0", "orig_feature_id": 228, "direction": "forward", "length": 10.355, "dynwd": 1.994, "cost": 25.385, "source_node": 171, "target_node": 143, "edge_idx": 410}, "geometry": {"type": "LineString", "coordinates": [[169878.0267391561, 2544334.597138147], [169877.238928318, 2544324.272097477]]}}, {"type": "Feature", "properties": {"segment_id": "243:0", "orig_feature_id": 243, "direction": "forward", "length": 20.141, "dynwd": 1.733, "cost": 36.476, "source_node": 143, "target_node": 138, "edge_idx": 438}, "geometry": {"type": "LineString", "coordinates": [[169877.238928318, 2544324.272097477], [169857.4551396807, 2544320.496729852]]}}, {"type": "Feature", "properties": {"segment_id": "292:0", "orig_feature_id": 292, "direction": "forward", "length": 13.923, "dynwd": 1.727, "cost": 30.287999999999997, "source_node": 228, "target_node": 229, "edge_idx": 534}, "geometry": {"type": "LineString", "coordinates": [[169513.83645971242, 2544033.592890352], [169511.4952608341, 2544019.8682027464]]}}, {"type": "Feature", "properties": {"segment_id": "329:0", "orig_feature_id": 329, "direction": "forward", "length": 85.086, "dynwd": 2.218, "cost": 98.996, "source_node": 229, "target_node": 268, "edge_idx": 608}, "geometry": {"type": "LineString", "coordinates": [[169511.4952608341, 2544019.8682027464], [169507.01747643604, 2543978.5069866735], [169502.73878023526, 2543935.236633785]]}}, {"type": "Feature", "properties": {"segment_id": "330:0", "orig_feature_id": 330, "direction": "forward", "length": 6.89, "dynwd": 2.197, "cost": 20.905, "source_node": 268, "target_node": 269, "edge_idx": 610}, "geometry": {"type": "LineString", "coordinates": [[169502.73878023526, 2543935.236633785], [169501.58598520578, 2543928.443532522]]}}, {"type": "Feature", "properties": {"segment_id": "332:0", "orig_feature_id": 332, "direction": "forward", "length": 53.504, "dynwd": 2.168, "cost": 67.664, "source_node": 269, "target_node": 271, "edge_idx": 614}, "geometry": {"type": "LineString", "coordinates": [[169501.58598520578, 2543928.443532522], [169498.36942787853, 2543875.037786648]]}}, {"type": "Feature", "properties": {"segment_id": "333:0", "orig_feature_id": 333, "direction": "forward", "length": 12.924, "dynwd": 1.721, "cost": 29.319, "source_node": 271, "target_node": 272, "edge_idx": 616}, "geometry": {"type": "LineString", "coordinates": [[169498.36942787853, 2543875.037786648], [169497.60258795615, 2543862.137095429]]}}, {"type": "Feature", "properties": {"segment_id": "336:0", "orig_feature_id": 336, "direction": "forward", "length": 24.671, "dynwd": 1.76, "cost": 40.871, "source_node": 272, "target_node": 273, "edge_idx": 622}, "geometry": {"type": "LineString", "coordinates": [[169497.60258795612, 2543862.137095428], [169494.51031640128, 2543837.661047732]]}}, {"type": "Feature", "properties": {"segment_id": "337:0", "orig_feature_id": 337, "direction": "forward", "length": 58.172, "dynwd": 1.71, "cost": 74.622, "source_node": 273, "target_node": 274, "edge_idx": 624}, "geometry": {"type": "LineString", "coordinates": [[169494.51031640128, 2543837.661047732], [169488.92781701172, 2543779.759096542]]}}, {"type": "Feature", "properties": {"segment_id": "384:0", "orig_feature_id": 384, "direction": "backward", "length": 86.267, "dynwd": 1.928, "cost": 101.627, "source_node": 300, "target_node": 244, "edge_idx": 695}, "geometry": {"type": "LineString", "coordinates": [[169570.64566479344, 2543690.062816057], [169568.66013771843, 2543693.153794294], [169570.99005025713, 2543715.754048066], [169573.16812518745, 2543748.7880538325], [169575.04187862633, 2543775.488297809]]}}, {"type": "Feature", "properties": {"segment_id": "448:0", "orig_feature_id": 448, "direction": "backward", "length": 21.077, "dynwd": 2.134, "cost": 35.407000000000004, "source_node": 138, "target_node": 156, "edge_idx": 817}, "geometry": {"type": "LineString", "coordinates": [[169837.3139839085, 2544314.2882628813], [169857.4551396807, 2544320.496729852]]}}, {"type": "Feature", "properties": {"segment_id": "504:0", "orig_feature_id": 504, "direction": "backward", "length": 60.52, "dynwd": 2.673, "cost": 72.155, "source_node": 362, "target_node": 171, "edge_idx": 927}, "geometry": {"type": "LineString", "coordinates": [[169878.02673915666, 2544334.5971381455], [169933.90885856567, 2544328.6211799784], [169938.09775407924, 2544329.6679203636]]}}, {"type": "Feature", "properties": {"segment_id": "507:0", "orig_feature_id": 507, "direction": "backward", "length": 134.234, "dynwd": 2.427, "cost": 147.09900000000002, "source_node": 178, "target_node": 362, "edge_idx": 933}, "geometry": {"type": "LineString", "coordinates": [[169938.09775407924, 2544329.6679203636], [169948.99085807585, 2544325.2273857687], [170071.28751490684, 2544318.74950542]]}}, {"type": "Feature", "properties": {"segment_id": "508:0", "orig_feature_id": 508, "direction": "backward", "length": 19.572, "dynwd": 1.684, "cost": 36.152, "source_node": 179, "target_node": 178, "edge_idx": 935}, "geometry": {"type": "LineString", "coordinates": [[170071.28751490684, 2544318.74950542], [170083.17094160203, 2544303.1991438135]]}}, {"type": "Feature", "properties": {"segment_id": "573:0", "orig_feature_id": 573, "direction": "forward", "length": 58.219, "dynwd": 2.006, "cost": 73.18900000000001, "source_node": 400, "target_node": 300, "edge_idx": 1070}, "geometry": {"type": "LineString", "coordinates": [[169519.01951916533, 2543791.3246252565], [169575.04187862633, 2543775.4882978084]]}}, {"type": "Feature", "properties": {"segment_id": "574:0", "orig_feature_id": 574, "direction": "backward", "length": 32.238, "dynwd": 2.14, "cost": 46.538, "source_node": 274, "target_node": 400, "edge_idx": 1073}, "geometry": {"type": "LineString", "coordinates": [[169519.01951916533, 2543791.3246252565], [169488.92781701172, 2543779.759096541]]}}, {"type": "Feature", "properties": {"segment_id": "592:0", "orig_feature_id": 592, "direction": "forward", "length": 45.13668966448903, "dynwd": 2.4, "cost": 58.13668966448903, "source_node": 413, "target_node": 228, "edge_idx": 1108}, "geometry": {"type": "LineString", "coordinates": [[169517.42553767352, 2544078.393008695], [169513.01625551068, 2544036.7887551025], [169513.83645971242, 2544033.592890352]]}}, {"type": "Feature", "properties": {"segment_id": "592:1", "orig_feature_id": 592, "direction": "forward", "length": 51.565955923045735, "dynwd": 2.4, "cost": 64.56595592304573, "source_node": 7, "target_node": 413, "edge_idx": 1110}, "geometry": {"type": "LineString", "coordinates": [[169526.72401451954, 2544127.2113705864], [169522.41824290244, 2544124.711829463], [169521.09398173305, 2544111.953093045], [169517.42553767352, 2544078.393008696]]}}], "crs": {"type": "name", "properties": {"name": "urn:ogc:def:crs:EPSG::3826"}}}