{"type": "FeatureCollection", "features": [{"type": "Feature", "properties": {"segment_id": "33:0", "orig_feature_id": 33, "direction": "backward", "length": 24.36, "dynwd": 1.758, "cost": 40.57, "source_node": 24, "target_node": 21, "edge_idx": 65}, "geometry": {"type": "LineString", "coordinates": [[169835.76878144406, 2544072.7498434563], [169860.09909955162, 2544071.554789246]]}}, {"type": "Feature", "properties": {"segment_id": "36:0", "orig_feature_id": 36, "direction": "forward", "length": 83.648, "dynwd": 1.452, "cost": 101.388, "source_node": 21, "target_node": 25, "edge_idx": 70}, "geometry": {"type": "LineString", "coordinates": [[169835.76878144406, 2544072.7498434563], [169840.03448573317, 2544068.9983997634], [169832.6915699624, 2543991.3789762883]]}}, {"type": "Feature", "properties": {"segment_id": "285:0", "orig_feature_id": 285, "direction": "forward", "length": 23.478, "dynwd": 1.132, "cost": 42.818000000000005, "source_node": 223, "target_node": 222, "edge_idx": 520}, "geometry": {"type": "LineString", "coordinates": [[169804.84479682776, 2543662.1000907687], [169803.60331830446, 2543638.655742326]]}}, {"type": "Feature", "properties": {"segment_id": "297:0", "orig_feature_id": 297, "direction": "backward", "length": 105.518, "dynwd": 1.605, "cost": 122.493, "source_node": 234, "target_node": 223, "edge_idx": 545}, "geometry": {"type": "LineString", "coordinates": [[169804.84479682776, 2543662.1000907687], [169814.05455689726, 2543767.2127550594]]}}, {"type": "Feature", "properties": {"segment_id": "298:0", "orig_feature_id": 298, "direction": "backward", "length": 151.056, "dynwd": 1.323, "cost": 169.441, "source_node": 236, "target_node": 235, "edge_idx": 547}, "geometry": {"type": "LineString", "coordinates": [[169819.8700613582, 2543829.991675604], [169832.95318678056, 2543980.4773807353]]}}, {"type": "Feature", "properties": {"segment_id": "301:0", "orig_feature_id": 301, "direction": "forward", "length": 10.866, "dynwd": 2.246, "cost": 24.636, "source_node": 238, "target_node": 239, "edge_idx": 552}, "geometry": {"type": "LineString", "coordinates": [[169694.62826603497, 2543674.6913001454], [169683.81858523207, 2543675.789755749]]}}, {"type": "Feature", "properties": {"segment_id": "302:0", "orig_feature_id": 302, "direction": "forward", "length": 5.895, "dynwd": 1.769, "cost": 22.05, "source_node": 239, "target_node": 240, "edge_idx": 554}, "geometry": {"type": "LineString", "coordinates": [[169683.81858523207, 2543675.789755749], [169677.9607589608, 2543676.4454783536]]}}, {"type": "Feature", "properties": {"segment_id": "303:0", "orig_feature_id": 303, "direction": "forward", "length": 15.033, "dynwd": 2.234, "cost": 28.863, "source_node": 240, "target_node": 241, "edge_idx": 556}, "geometry": {"type": "LineString", "coordinates": [[169677.9607589608, 2543676.4454783536], [169663.03801894945, 2543678.259734663]]}}, {"type": "Feature", "properties": {"segment_id": "338:0", "orig_feature_id": 338, "direction": "backward", "length": 5.16764521706108, "dynwd": 1.352, "cost": 23.407645217061077, "source_node": 275, "target_node": 236, "edge_idx": 627}, "geometry": {"type": "LineString", "coordinates": [[169832.95318678056, 2543980.4773807353], [169832.14308519955, 2543985.581133523]]}}, {"type": "Feature", "properties": {"segment_id": "338:1", "orig_feature_id": 338, "direction": "forward", "length": 5.823728724788795, "dynwd": 1.352, "cost": 24.063728724788795, "source_node": 25, "target_node": 275, "edge_idx": 628}, "geometry": {"type": "LineString", "coordinates": [[169832.6915699624, 2543991.3789762883], [169832.14308519958, 2543985.5811335235]]}}, {"type": "Feature", "properties": {"segment_id": "367:0", "orig_feature_id": 367, "direction": "backward", "length": 20.253, "dynwd": 1.669, "cost": 36.908, "source_node": 288, "target_node": 287, "edge_idx": 661}, "geometry": {"type": "LineString", "coordinates": [[169691.4611662973, 2543651.271374996], [169711.6635690792, 2543649.841436364]]}}, {"type": "Feature", "properties": {"segment_id": "370:0", "orig_feature_id": 370, "direction": "backward", "length": 84.627, "dynwd": 1.433, "cost": 102.46199999999999, "source_node": 222, "target_node": 291, "edge_idx": 667}, "geometry": {"type": "LineString", "coordinates": [[169719.60837070737, 2543648.967414155], [169803.60331830446, 2543638.655742325]]}}, {"type": "Feature", "properties": {"segment_id": "371:0", "orig_feature_id": 371, "direction": "forward", "length": 23.634, "dynwd": 1.064, "cost": 43.314, "source_node": 287, "target_node": 238, "edge_idx": 668}, "geometry": {"type": "LineString", "coordinates": [[169691.4611662973, 2543651.271374996], [169694.62826603497, 2543674.6913001454]]}}, {"type": "Feature", "properties": {"segment_id": "372:0", "orig_feature_id": 372, "direction": "forward", "length": 19.891, "dynwd": 1.335, "cost": 38.215999999999994, "source_node": 241, "target_node": 292, "edge_idx": 670}, "geometry": {"type": "LineString", "coordinates": [[169663.03801894945, 2543678.2597346622], [169668.233981031, 2543697.4599564564]]}}, {"type": "Feature", "properties": {"segment_id": "374:0", "orig_feature_id": 374, "direction": "forward", "length": 45.207, "dynwd": 1.947, "cost": 60.472, "source_node": 292, "target_node": 294, "edge_idx": 674}, "geometry": {"type": "LineString", "coordinates": [[169668.23398103096, 2543697.459956456], [169666.14130313825, 2543701.187574695], [169676.7529274905, 2543740.718975254]]}}, {"type": "Feature", "properties": {"segment_id": "378:0", "orig_feature_id": 378, "direction": "backward", "length": 30.037, "dynwd": 2.215, "cost": 43.962, "source_node": 294, "target_node": 297, "edge_idx": 683}, "geometry": {"type": "LineString", "coordinates": [[169647.8646954599, 2543747.821424202], [169651.76733255372, 2543748.2853209823], [169676.7529274905, 2543740.7189752534]]}}, {"type": "Feature", "properties": {"segment_id": "382:0", "orig_feature_id": 382, "direction": "forward", "length": 29.99, "dynwd": 2.047, "cost": 44.754999999999995, "source_node": 297, "target_node": 301, "edge_idx": 690}, "geometry": {"type": "LineString", "coordinates": [[169647.8646954599, 2543747.821424202], [169642.00481587864, 2543747.0147289224], [169618.63476443553, 2543752.7950730636]]}}, {"type": "Feature", "properties": {"segment_id": "566:0", "orig_feature_id": 566, "direction": "forward", "length": 63.049, "dynwd": 1.805, "cost": 79.024, "source_node": 235, "target_node": 234, "edge_idx": 1056}, "geometry": {"type": "LineString", "coordinates": [[169819.8700613582, 2543829.991675604], [169814.05455689726, 2543767.212755059]]}}, {"type": "Feature", "properties": {"segment_id": "567:0", "orig_feature_id": 567, "direction": "forward", "length": 7.993, "dynwd": 1.324, "cost": 26.373000000000005, "source_node": 291, "target_node": 288, "edge_idx": 1058}, "geometry": {"type": "LineString", "coordinates": [[169719.60837070475, 2543648.967414155], [169711.6635690792, 2543649.841436364]]}}], "crs": {"type": "name", "properties": {"name": "urn:ogc:def:crs:EPSG::3826"}}}