{"type": "FeatureCollection", "features": [{"type": "Feature", "properties": {"segment_id": "10:0", "orig_feature_id": 10, "direction": "forward", "length": 19.483, "dynwd": 1.652, "cost": 36.223, "source_node": 5, "target_node": 7, "edge_idx": 18}, "geometry": {"type": "LineString", "coordinates": [[169530.27041562807, 2544146.368488046], [169526.72401451954, 2544127.2113705864]]}}, {"type": "Feature", "properties": {"segment_id": "14:0", "orig_feature_id": 14, "direction": "backward", "length": 159.801, "dynwd": 2.47, "cost": 172.451, "source_node": 11, "target_node": 5, "edge_idx": 27}, "geometry": {"type": "LineString", "coordinates": [[169530.27041562807, 2544146.368488046], [169687.85754148295, 2544119.881591331]]}}, {"type": "Feature", "properties": {"segment_id": "90:0", "orig_feature_id": 90, "direction": "backward", "length": 35.895, "dynwd": 1.708, "cost": 52.355000000000004, "source_node": 71, "target_node": 64, "edge_idx": 179}, "geometry": {"type": "LineString", "coordinates": [[170088.02258369728, 2544569.5994690084], [170091.2737385903, 2544605.346019676]]}}, {"type": "Feature", "properties": {"segment_id": "107:0", "orig_feature_id": 107, "direction": "forward", "length": 92.733, "dynwd": 2.571, "cost": 104.878, "source_node": 80, "target_node": 84, "edge_idx": 204}, "geometry": {"type": "LineString", "coordinates": [[170278.27415765307, 2544772.2135739936], [170273.96847541313, 2544775.6225203294], [170187.9657743007, 2544790.259790019]]}}, {"type": "Feature", "properties": {"segment_id": "187:0", "orig_feature_id": 187, "direction": "backward", "length": 14.423, "dynwd": 1.834, "cost": 30.253, "source_node": 139, "target_node": 138, "edge_idx": 333}, "geometry": {"type": "LineString", "coordinates": [[169857.4551396807, 2544320.496729852], [169859.36805201607, 2544334.7923190636]]}}, {"type": "Feature", "properties": {"segment_id": "194:0", "orig_feature_id": 194, "direction": "backward", "length": 73.951, "dynwd": 2.604, "cost": 85.931, "source_node": 146, "target_node": 11, "edge_idx": 347}, "geometry": {"type": "LineString", "coordinates": [[169687.85754148295, 2544119.881591331], [169703.73007247434, 2544192.1077493285]]}}, {"type": "Feature", "properties": {"segment_id": "197:0", "orig_feature_id": 197, "direction": "backward", "length": 79.172, "dynwd": 2.48, "cost": 91.77199999999999, "source_node": 149, "target_node": 148, "edge_idx": 353}, "geometry": {"type": "LineString", "coordinates": [[169725.92499748175, 2544206.675608763], [169741.95099870957, 2544284.2069925945]]}}, {"type": "Feature", "properties": {"segment_id": "199:0", "orig_feature_id": 199, "direction": "backward", "length": 26.549, "dynwd": 1.502, "cost": 44.039, "source_node": 148, "target_node": 146, "edge_idx": 357}, "geometry": {"type": "LineString", "coordinates": [[169703.73007247434, 2544192.1077493285], [169725.92499748175, 2544206.675608763]]}}, {"type": "Feature", "properties": {"segment_id": "207:0", "orig_feature_id": 207, "direction": "backward", "length": 50.008, "dynwd": 2.366, "cost": 63.178000000000004, "source_node": 155, "target_node": 149, "edge_idx": 373}, "geometry": {"type": "LineString", "coordinates": [[169741.95099870957, 2544284.2069925945], [169751.3966727628, 2544333.313762168]]}}, {"type": "Feature", "properties": {"segment_id": "208:0", "orig_feature_id": 208, "direction": "backward", "length": 88.0, "dynwd": 2.381, "cost": 101.095, "source_node": 156, "target_node": 155, "edge_idx": 375}, "geometry": {"type": "LineString", "coordinates": [[169751.3966727628, 2544333.313762168], [169837.3139839085, 2544314.2882628813]]}}, {"type": "Feature", "properties": {"segment_id": "233:0", "orig_feature_id": 233, "direction": "forward", "length": 82.176, "dynwd": 2.564, "cost": 94.356, "source_node": 175, "target_node": 176, "edge_idx": 420}, "geometry": {"type": "LineString", "coordinates": [[170083.99744371447, 2544454.936595238], [170076.36152105976, 2544373.1175622474]]}}, {"type": "Feature", "properties": {"segment_id": "244:0", "orig_feature_id": 244, "direction": "forward", "length": 18.66, "dynwd": 1.708, "cost": 35.120000000000005, "source_node": 171, "target_node": 139, "edge_idx": 440}, "geometry": {"type": "LineString", "coordinates": [[169878.0267391567, 2544334.597138146], [169859.36805201607, 2544334.7923190636]]}}, {"type": "Feature", "properties": {"segment_id": "292:0", "orig_feature_id": 292, "direction": "forward", "length": 13.923, "dynwd": 1.652, "cost": 30.662999999999997, "source_node": 228, "target_node": 229, "edge_idx": 534}, "geometry": {"type": "LineString", "coordinates": [[169513.83645971242, 2544033.592890352], [169511.4952608341, 2544019.8682027464]]}}, {"type": "Feature", "properties": {"segment_id": "329:0", "orig_feature_id": 329, "direction": "forward", "length": 85.086, "dynwd": 2.093, "cost": 99.621, "source_node": 229, "target_node": 268, "edge_idx": 608}, "geometry": {"type": "LineString", "coordinates": [[169511.4952608341, 2544019.8682027464], [169507.01747643604, 2543978.5069866735], [169502.73878023526, 2543935.236633785]]}}, {"type": "Feature", "properties": {"segment_id": "330:0", "orig_feature_id": 330, "direction": "forward", "length": 6.89, "dynwd": 2.072, "cost": 21.53, "source_node": 268, "target_node": 269, "edge_idx": 610}, "geometry": {"type": "LineString", "coordinates": [[169502.73878023526, 2543935.236633785], [169501.58598520578, 2543928.443532522]]}}, {"type": "Feature", "properties": {"segment_id": "332:0", "orig_feature_id": 332, "direction": "forward", "length": 53.504, "dynwd": 2.093, "cost": 68.039, "source_node": 269, "target_node": 271, "edge_idx": 614}, "geometry": {"type": "LineString", "coordinates": [[169501.58598520578, 2543928.443532522], [169498.36942787853, 2543875.037786648]]}}, {"type": "Feature", "properties": {"segment_id": "383:0", "orig_feature_id": 383, "direction": "backward", "length": 127.598, "dynwd": 1.548, "cost": 144.858, "source_node": 302, "target_node": 297, "edge_idx": 693}, "geometry": {"type": "LineString", "coordinates": [[169647.8646954599, 2543747.821424202], [169659.94285848032, 2543789.092180352], [169609.48177411826, 2543803.7427951572], [169577.65051940858, 2543807.467844929]]}}, {"type": "Feature", "properties": {"segment_id": "386:0", "orig_feature_id": 386, "direction": "forward", "length": 14.82, "dynwd": 1.416, "cost": 32.74, "source_node": 271, "target_node": 303, "edge_idx": 698}, "geometry": {"type": "LineString", "coordinates": [[169498.36942787853, 2543875.037786648], [169500.9765645567, 2543868.4777020947], [169508.71033743658, 2543867.830814385]]}}, {"type": "Feature", "properties": {"segment_id": "388:0", "orig_feature_id": 388, "direction": "forward", "length": 30.165, "dynwd": 1.554, "cost": 47.394999999999996, "source_node": 304, "target_node": 306, "edge_idx": 702}, "geometry": {"type": "LineString", "coordinates": [[169536.06201429287, 2543865.54299654], [169533.776235395, 2543835.4650711273]]}}, {"type": "Feature", "properties": {"segment_id": "389:0", "orig_feature_id": 389, "direction": "forward", "length": 42.672, "dynwd": 2.009, "cost": 57.626999999999995, "source_node": 306, "target_node": 307, "edge_idx": 704}, "geometry": {"type": "LineString", "coordinates": [[169533.776235395, 2543835.4650711273], [169576.30451942427, 2543831.9764997466]]}}, {"type": "Feature", "properties": {"segment_id": "391:0", "orig_feature_id": 391, "direction": "forward", "length": 24.546, "dynwd": 1.981, "cost": 39.641, "source_node": 307, "target_node": 302, "edge_idx": 708}, "geometry": {"type": "LineString", "coordinates": [[169576.30451942427, 2543831.976499746], [169577.65051940858, 2543807.467844929]]}}, {"type": "Feature", "properties": {"segment_id": "418:0", "orig_feature_id": 418, "direction": "backward", "length": 50.387, "dynwd": 2.305, "cost": 63.862, "source_node": 330, "target_node": 329, "edge_idx": 761}, "geometry": {"type": "LineString", "coordinates": [[170182.883712839, 2544678.398971657], [170187.05021047202, 2544728.6124106497]]}}, {"type": "Feature", "properties": {"segment_id": "419:0", "orig_feature_id": 419, "direction": "backward", "length": 66.398, "dynwd": 2.514, "cost": 78.828, "source_node": 84, "target_node": 330, "edge_idx": 763}, "geometry": {"type": "LineString", "coordinates": [[170187.05021047202, 2544728.6124106497], [170188.29984636724, 2544742.6282075406], [170183.767027843, 2544742.652278397], [170187.9657743007, 2544790.259790019]]}}, {"type": "Feature", "properties": {"segment_id": "424:0", "orig_feature_id": 424, "direction": "forward", "length": 61.256, "dynwd": 2.332, "cost": 74.596, "source_node": 329, "target_node": 333, "edge_idx": 770}, "geometry": {"type": "LineString", "coordinates": [[170182.883712839, 2544678.398971657], [170180.8832779503, 2544645.752648186], [170180.74081461565, 2544641.125103917], [170176.07157343655, 2544641.3320111474], [170174.87066842636, 2544622.1257029683]]}}, {"type": "Feature", "properties": {"segment_id": "431:0", "orig_feature_id": 431, "direction": "backward", "length": 61.4, "dynwd": 1.837, "cost": 77.215, "source_node": 333, "target_node": 336, "edge_idx": 785}, "geometry": {"type": "LineString", "coordinates": [[170113.88400034286, 2544629.228286703], [170174.8706684264, 2544622.125702968]]}}, {"type": "Feature", "properties": {"segment_id": "432:0", "orig_feature_id": 432, "direction": "forward", "length": 32.888, "dynwd": 1.944, "cost": 48.168, "source_node": 336, "target_node": 71, "edge_idx": 786}, "geometry": {"type": "LineString", "coordinates": [[170113.88400034286, 2544629.228286703], [170091.2737385903, 2544605.346019676]]}}, {"type": "Feature", "properties": {"segment_id": "448:0", "orig_feature_id": 448, "direction": "backward", "length": 21.077, "dynwd": 2.109, "cost": 35.532000000000004, "source_node": 138, "target_node": 156, "edge_idx": 817}, "geometry": {"type": "LineString", "coordinates": [[169837.3139839085, 2544314.2882628813], [169857.4551396807, 2544320.496729852]]}}, {"type": "Feature", "properties": {"segment_id": "478:0", "orig_feature_id": 478, "direction": "forward", "length": 116.102, "dynwd": 2.536, "cost": 128.422, "source_node": 64, "target_node": 175, "edge_idx": 874}, "geometry": {"type": "LineString", "coordinates": [[170088.02258369728, 2544569.5994690084], [170091.95012514744, 2544563.434049188], [170089.29822904314, 2544525.2492194395], [170088.63221950072, 2544515.132310948], [170083.99744371447, 2544454.936595238]]}}, {"type": "Feature", "properties": {"segment_id": "504:0", "orig_feature_id": 504, "direction": "backward", "length": 60.52, "dynwd": 2.648, "cost": 72.28, "source_node": 362, "target_node": 171, "edge_idx": 927}, "geometry": {"type": "LineString", "coordinates": [[169878.02673915666, 2544334.5971381455], [169933.90885856567, 2544328.6211799784], [169938.09775407924, 2544329.6679203636]]}}, {"type": "Feature", "properties": {"segment_id": "507:0", "orig_feature_id": 507, "direction": "backward", "length": 134.234, "dynwd": 2.452, "cost": 146.97400000000002, "source_node": 178, "target_node": 362, "edge_idx": 933}, "geometry": {"type": "LineString", "coordinates": [[169938.09775407924, 2544329.6679203636], [169948.99085807585, 2544325.2273857687], [170071.28751490684, 2544318.74950542]]}}, {"type": "Feature", "properties": {"segment_id": "511:0", "orig_feature_id": 511, "direction": "forward", "length": 54.605, "dynwd": 2.564, "cost": 66.785, "source_node": 176, "target_node": 178, "edge_idx": 940}, "geometry": {"type": "LineString", "coordinates": [[170076.36152105976, 2544373.1175622474], [170071.28751490684, 2544318.74950542]]}}, {"type": "Feature", "properties": {"segment_id": "592:0", "orig_feature_id": 592, "direction": "forward", "length": 45.13668966448903, "dynwd": 2.375, "cost": 58.26168966448903, "source_node": 413, "target_node": 228, "edge_idx": 1108}, "geometry": {"type": "LineString", "coordinates": [[169517.42553767352, 2544078.393008695], [169513.01625551068, 2544036.7887551025], [169513.83645971242, 2544033.592890352]]}}, {"type": "Feature", "properties": {"segment_id": "592:1", "orig_feature_id": 592, "direction": "forward", "length": 51.565955923045735, "dynwd": 2.375, "cost": 64.69095592304573, "source_node": 7, "target_node": 413, "edge_idx": 1110}, "geometry": {"type": "LineString", "coordinates": [[169526.72401451954, 2544127.2113705864], [169522.41824290244, 2544124.711829463], [169521.09398173305, 2544111.953093045], [169517.42553767352, 2544078.393008696]]}}, {"type": "Feature", "properties": {"segment_id": "599:0", "orig_feature_id": 599, "direction": "forward", "length": 27.448, "dynwd": 1.416, "cost": 45.368, "source_node": 303, "target_node": 304, "edge_idx": 1124}, "geometry": {"type": "LineString", "coordinates": [[169508.71033743658, 2543867.830814385], [169536.06201429287, 2543865.54299654]]}}], "crs": {"type": "name", "properties": {"name": "urn:ogc:def:crs:EPSG::3826"}}}