{"type": "FeatureCollection", "features": [{"type": "Feature", "properties": {"segment_id": "100:0", "orig_feature_id": 100, "direction": "forward", "length": 24.489, "dynwd": 1.658, "cost": 41.199, "source_node": 80, "target_node": 75, "edge_idx": 198}, "geometry": {"type": "LineString", "coordinates": [[170278.27415765307, 2544772.2135739936], [170302.76285690573, 2544772.2358835503]]}}, {"type": "Feature", "properties": {"segment_id": "412:0", "orig_feature_id": 412, "direction": "backward", "length": 183.181, "dynwd": 2.47, "cost": 195.83100000000002, "source_node": 75, "target_node": 66, "edge_idx": 751}, "geometry": {"type": "LineString", "coordinates": [[170290.3934298146, 2544589.907141135], [170289.0405840315, 2544594.5560007207], [170288.37081965577, 2544598.135932122], [170294.50055724886, 2544672.2871449552], [170295.16303607976, 2544680.30112729], [170302.76285690573, 2544772.2358835503]]}}, {"type": "Feature", "properties": {"segment_id": "83:0", "orig_feature_id": 83, "direction": "backward", "length": 38.036, "dynwd": 1.758, "cost": 54.246, "source_node": 66, "target_node": 58, "edge_idx": 165}, "geometry": {"type": "LineString", "coordinates": [[170287.97282923321, 2544551.9494169177], [170290.3934298146, 2544589.907141135]]}}, {"type": "Feature", "properties": {"segment_id": "75:0", "orig_feature_id": 75, "direction": "backward", "length": 243.342, "dynwd": 2.45, "cost": 256.092, "source_node": 58, "target_node": 57, "edge_idx": 149}, "geometry": {"type": "LineString", "coordinates": [[170265.3924974674, 2544310.17787023], [170283.9434492964, 2544542.535200711], [170287.97282923321, 2544551.9494169177]]}}, {"type": "Feature", "properties": {"segment_id": "483:0", "orig_feature_id": 483, "direction": "backward", "length": 252.092, "dynwd": 2.26, "cost": 265.79200000000003, "source_node": 57, "target_node": 38, "edge_idx": 885}, "geometry": {"type": "LineString", "coordinates": [[170246.20626354613, 2544059.228675796], [170244.7422669825, 2544062.9663285306], [170248.0243230423, 2544101.69045797], [170265.3924974674, 2544310.17787023]]}}, {"type": "Feature", "properties": {"segment_id": "50:0", "orig_feature_id": 50, "direction": "forward", "length": 32.566, "dynwd": 1.658, "cost": 49.276, "source_node": 38, "target_node": 33, "edge_idx": 98}, "geometry": {"type": "LineString", "coordinates": [[170246.20626354613, 2544059.2286757957], [170218.18459758867, 2544042.636246871]]}}, {"type": "Feature", "properties": {"segment_id": "242:0", "orig_feature_id": 242, "direction": "forward", "length": 47.196, "dynwd": 2.233, "cost": 61.031, "source_node": 33, "target_node": 185, "edge_idx": 436}, "geometry": {"type": "LineString", "coordinates": [[170218.18459758867, 2544042.636246871], [170220.09608936706, 2544037.0913100373], [170216.73319393196, 2543995.8982265512]]}}, {"type": "Feature", "properties": {"segment_id": "262:0", "orig_feature_id": 262, "direction": "forward", "length": 30.452, "dynwd": 1.554, "cost": 47.682, "source_node": 185, "target_node": 201, "edge_idx": 474}, "geometry": {"type": "LineString", "coordinates": [[170216.73319393196, 2543995.8982265512], [170214.39642808936, 2543965.536754589]]}}, {"type": "Feature", "properties": {"segment_id": "562:0", "orig_feature_id": 562, "direction": "backward", "length": 45.198, "dynwd": 2.149, "cost": 59.453, "source_node": 201, "target_node": 398, "edge_idx": 1049}, "geometry": {"type": "LineString", "coordinates": [[170170.3266738067, 2543955.506173612], [170214.39642808936, 2543965.536754589]]}}, {"type": "Feature", "properties": {"segment_id": "563:0", "orig_feature_id": 563, "direction": "forward", "length": 161.561, "dynwd": 2.205, "cost": 175.536, "source_node": 398, "target_node": 377, "edge_idx": 1050}, "geometry": {"type": "LineString", "coordinates": [[170170.3266738067, 2543955.506173612], [170176.7543927575, 2543883.377331623], [170179.37864228952, 2543857.6592279417], [170191.79220724327, 2543832.138673884], [170180.35840424, 2543799.152717451]]}}, {"type": "Feature", "properties": {"segment_id": "532:0", "orig_feature_id": 532, "direction": "backward", "length": 107.533, "dynwd": 1.987, "cost": 122.598, "source_node": 377, "target_node": 376, "edge_idx": 989}, "geometry": {"type": "LineString", "coordinates": [[170182.24593800315, 2543693.462334219], [170179.8451323312, 2543749.743227102], [170173.46550857057, 2543777.2283452153], [170180.35840424, 2543799.152717451]]}}, {"type": "Feature", "properties": {"segment_id": "530:0", "orig_feature_id": 530, "direction": "backward", "length": 48.702, "dynwd": 2.009, "cost": 63.657, "source_node": 376, "target_node": 375, "edge_idx": 985}, "geometry": {"type": "LineString", "coordinates": [[170133.93824121787, 2543699.6368783116], [170182.24593800356, 2543693.4623342184]]}}, {"type": "Feature", "properties": {"segment_id": "529:0", "orig_feature_id": 529, "direction": "backward", "length": 75.036, "dynwd": 2.043, "cost": 89.821, "source_node": 375, "target_node": 370, "edge_idx": 983}, "geometry": {"type": "LineString", "coordinates": [[170066.60519913322, 2543666.52361112], [170133.93824121787, 2543699.6368783116]]}}, {"type": "Feature", "properties": {"segment_id": "523:0", "orig_feature_id": 523, "direction": "backward", "length": 28.472, "dynwd": 2.105, "cost": 42.947, "source_node": 370, "target_node": 195, "edge_idx": 971}, "geometry": {"type": "LineString", "coordinates": [[170063.62809549627, 2543638.2078741305], [170066.60519913322, 2543666.52361112]]}}, {"type": "Feature", "properties": {"segment_id": "257:0", "orig_feature_id": 257, "direction": "backward", "length": 25.523, "dynwd": 2.209, "cost": 39.478, "source_node": 195, "target_node": 194, "edge_idx": 465}, "geometry": {"type": "LineString", "coordinates": [[170038.1687619835, 2543640.008393316], [170063.62809549627, 2543638.2078741305]]}}, {"type": "Feature", "properties": {"segment_id": "256:0", "orig_feature_id": 256, "direction": "backward", "length": 8.352, "dynwd": 1.446, "cost": 26.122000000000003, "source_node": 194, "target_node": 193, "edge_idx": 463}, "geometry": {"type": "LineString", "coordinates": [[170029.87023228875, 2543640.9544844376], [170038.1687619835, 2543640.008393316]]}}, {"type": "Feature", "properties": {"segment_id": "517:0", "orig_feature_id": 517, "direction": "backward", "length": 205.173, "dynwd": 2.215, "cost": 219.098, "source_node": 193, "target_node": 192, "edge_idx": 955}, "geometry": {"type": "LineString", "coordinates": [[169825.59254859295, 2543660.0120802997], [169886.82981259382, 2543654.8289936534], [169897.57011200153, 2543653.800434765], [169977.4933057382, 2543645.8816901543], [169980.38789516443, 2543645.658141723], [170029.87023228875, 2543640.9544844376]]}}, {"type": "Feature", "properties": {"segment_id": "282:0", "orig_feature_id": 282, "direction": "backward", "length": 23.43, "dynwd": 1.596, "cost": 40.45, "source_node": 192, "target_node": 221, "edge_idx": 515}, "geometry": {"type": "LineString", "coordinates": [[169824.665278906, 2543636.600743736], [169825.59254859295, 2543660.0120802997]]}}, {"type": "Feature", "properties": {"segment_id": "283:0", "orig_feature_id": 283, "direction": "forward", "length": 21.162, "dynwd": 1.232, "cost": 40.001999999999995, "source_node": 221, "target_node": 222, "edge_idx": 516}, "geometry": {"type": "LineString", "coordinates": [[169824.665278906, 2543636.600743736], [169803.60331830446, 2543638.6557423263]]}}, {"type": "Feature", "properties": {"segment_id": "370:0", "orig_feature_id": 370, "direction": "backward", "length": 84.627, "dynwd": 1.433, "cost": 102.46199999999999, "source_node": 222, "target_node": 291, "edge_idx": 667}, "geometry": {"type": "LineString", "coordinates": [[169719.60837070737, 2543648.967414155], [169803.60331830446, 2543638.655742325]]}}, {"type": "Feature", "properties": {"segment_id": "567:0", "orig_feature_id": 567, "direction": "forward", "length": 7.993, "dynwd": 1.274, "cost": 26.622999999999998, "source_node": 291, "target_node": 288, "edge_idx": 1058}, "geometry": {"type": "LineString", "coordinates": [[169719.60837070475, 2543648.967414155], [169711.6635690792, 2543649.841436364]]}}, {"type": "Feature", "properties": {"segment_id": "367:0", "orig_feature_id": 367, "direction": "backward", "length": 20.253, "dynwd": 1.669, "cost": 36.908, "source_node": 288, "target_node": 287, "edge_idx": 661}, "geometry": {"type": "LineString", "coordinates": [[169691.4611662973, 2543651.271374996], [169711.6635690792, 2543649.841436364]]}}, {"type": "Feature", "properties": {"segment_id": "371:0", "orig_feature_id": 371, "direction": "forward", "length": 23.634, "dynwd": 1.164, "cost": 42.814, "source_node": 287, "target_node": 238, "edge_idx": 668}, "geometry": {"type": "LineString", "coordinates": [[169691.4611662973, 2543651.271374996], [169694.62826603497, 2543674.6913001454]]}}, {"type": "Feature", "properties": {"segment_id": "301:0", "orig_feature_id": 301, "direction": "forward", "length": 10.866, "dynwd": 2.296, "cost": 24.386000000000003, "source_node": 238, "target_node": 239, "edge_idx": 552}, "geometry": {"type": "LineString", "coordinates": [[169694.62826603497, 2543674.6913001454], [169683.81858523207, 2543675.789755749]]}}, {"type": "Feature", "properties": {"segment_id": "302:0", "orig_feature_id": 302, "direction": "forward", "length": 5.895, "dynwd": 1.619, "cost": 22.8, "source_node": 239, "target_node": 240, "edge_idx": 554}, "geometry": {"type": "LineString", "coordinates": [[169683.81858523207, 2543675.789755749], [169677.9607589608, 2543676.4454783536]]}}, {"type": "Feature", "properties": {"segment_id": "303:0", "orig_feature_id": 303, "direction": "forward", "length": 15.033, "dynwd": 2.184, "cost": 29.113, "source_node": 240, "target_node": 241, "edge_idx": 556}, "geometry": {"type": "LineString", "coordinates": [[169677.9607589608, 2543676.4454783536], [169663.03801894945, 2543678.259734663]]}}, {"type": "Feature", "properties": {"segment_id": "372:0", "orig_feature_id": 372, "direction": "forward", "length": 19.891, "dynwd": 1.235, "cost": 38.715999999999994, "source_node": 241, "target_node": 292, "edge_idx": 670}, "geometry": {"type": "LineString", "coordinates": [[169663.03801894945, 2543678.2597346622], [169668.233981031, 2543697.4599564564]]}}, {"type": "Feature", "properties": {"segment_id": "374:0", "orig_feature_id": 374, "direction": "forward", "length": 45.207, "dynwd": 1.897, "cost": 60.722, "source_node": 292, "target_node": 294, "edge_idx": 674}, "geometry": {"type": "LineString", "coordinates": [[169668.23398103096, 2543697.459956456], [169666.14130313825, 2543701.187574695], [169676.7529274905, 2543740.718975254]]}}, {"type": "Feature", "properties": {"segment_id": "378:0", "orig_feature_id": 378, "direction": "backward", "length": 30.037, "dynwd": 2.015, "cost": 44.961999999999996, "source_node": 294, "target_node": 297, "edge_idx": 683}, "geometry": {"type": "LineString", "coordinates": [[169647.8646954599, 2543747.821424202], [169651.76733255372, 2543748.2853209823], [169676.7529274905, 2543740.7189752534]]}}], "crs": {"type": "name", "properties": {"name": "urn:ogc:def:crs:EPSG::3826"}}}